{
  "type": "FeatureCollection",
  "features": [
    {
      "type": "Feature",
      "properties": {
        "norad_id": 67040,
        "name": "STARLINK-35786",
        "group": "last-30-days",
        "lat": 2.8432846940674663,
        "lon": 125.9751946390106,
        "alt_km": 321.46558402885694,
        "timestamp": "2025-12-22T09:53:36.147320+00:00",
        "meta_object_name": "STARLINK-35786",
        "meta_object_id": "2025-294L",
        "meta_epoch": "2025-12-22T04:00:01.998720",
        "meta_mean_motion": 15.84024578,
        "meta_eccentricity": 0.0001542,
        "meta_inclination": 43.0003,
        "meta_ra_of_asc_node": 124.4287,
        "meta_arg_of_pericenter": 273.5856,
        "meta_mean_anomaly": 129.2358,
        "meta_ephemeris_type": 0,
        "meta_classification_type": "U",
        "meta_norad_cat_id": 67040,
        "meta_element_set_no": 999,
        "meta_rev_at_epoch": 163,
        "meta_bstar": -0.00939,
        "meta_mean_motion_dot": -0.0190083,
        "meta_mean_motion_ddot": 0,
        "tle_line1": "1 67040U 25294L   25356.16668980 -.01900830  00000+0 -93900-2 0  9999",
        "tle_line2": "2 67040  43.0003 124.4287 0001542 273.5856 129.2358 15.84024578  1639"
      },
      "geometry": {
        "type": "Point",
        "coordinates": [
          125.9751946390106,
          2.8432846940674663
        ]
      }
    },
    {
      "type": "Feature",
      "properties": {
        "norad_id": 67041,
        "name": "STARLINK-35765",
        "group": "last-30-days",
        "lat": 5.668676970081295,
        "lon": 129.02421840689271,
        "alt_km": 321.0548365946888,
        "timestamp": "2025-12-22T09:53:36.147330+00:00",
        "meta_object_name": "STARLINK-35765",
        "meta_object_id": "2025-294M",
        "meta_epoch": "2025-12-22T04:00:01.998720",
        "meta_mean_motion": 15.84036821,
        "meta_eccentricity": 0.0001564,
        "meta_inclination": 43.0003,
        "meta_ra_of_asc_node": 124.4181,
        "meta_arg_of_pericenter": 278.4329,
        "meta_mean_anomaly": 128.5409,
        "meta_ephemeris_type": 0,
        "meta_classification_type": "U",
        "meta_norad_cat_id": 67041,
        "meta_element_set_no": 999,
        "meta_rev_at_epoch": 163,
        "meta_bstar": -0.0095179,
        "meta_mean_motion_dot": -0.01924355,
        "meta_mean_motion_ddot": 0,
        "tle_line1": "1 67041U 25294M   25356.16668980 -.01924355  00000+0 -95179-2 0  9998",
        "tle_line2": "2 67041  43.0003 124.4181 0001564 278.4329 128.5409 15.84036821  1639"
      },
      "geometry": {
        "type": "Point",
        "coordinates": [
          129.02421840689271,
          5.668676970081295
        ]
      }
    },
    {
      "type": "Feature",
      "properties": {
        "norad_id": 67042,
        "name": "STARLINK-35773",
        "group": "last-30-days",
        "lat": 7.174902398834449,
        "lon": 130.66793384329088,
        "alt_km": 320.9142463937533,
        "timestamp": "2025-12-22T09:53:36.147341+00:00",
        "meta_object_name": "STARLINK-35773",
        "meta_object_id": "2025-294N",
        "meta_epoch": "2025-12-22T04:00:01.998720",
        "meta_mean_motion": 15.84006527,
        "meta_eccentricity": 0.0001606,
        "meta_inclination": 43.0001,
        "meta_ra_of_asc_node": 124.4126,
        "meta_arg_of_pericenter": 279.4047,
        "meta_mean_anomaly": 129.815,
        "meta_ephemeris_type": 0,
        "meta_classification_type": "U",
        "meta_norad_cat_id": 67042,
        "meta_element_set_no": 999,
        "meta_rev_at_epoch": 182,
        "meta_bstar": -0.0094188,
        "meta_mean_motion_dot": -0.0190452,
        "meta_mean_motion_ddot": 0,
        "tle_line1": "1 67042U 25294N   25356.16668980 -.01904520  00000+0 -94188-2 0  9990",
        "tle_line2": "2 67042  43.0001 124.4126 0001606 279.4047 129.8150 15.84006527  1820"
      },
      "geometry": {
        "type": "Point",
        "coordinates": [
          130.66793384329088,
          7.174902398834449
        ]
      }
    },
    {
      "type": "Feature",
      "properties": {
        "norad_id": 67043,
        "name": "STARLINK-35901",
        "group": "last-30-days",
        "lat": 8.659851106181598,
        "lon": 132.3053531259114,
        "alt_km": 320.86610566641593,
        "timestamp": "2025-12-22T09:53:36.147351+00:00",
        "meta_object_name": "STARLINK-35901",
        "meta_object_id": "2025-294P",
        "meta_epoch": "2025-12-22T04:00:01.998720",
        "meta_mean_motion": 15.83999106,
        "meta_eccentricity": 0.0001597,
        "meta_inclination": 43.0003,
        "meta_ra_of_asc_node": 124.4071,
        "meta_arg_of_pericenter": 275.49,
        "meta_mean_anomaly": 135.9393,
        "meta_ephemeris_type": 0,
        "meta_classification_type": "U",
        "meta_norad_cat_id": 67043,
        "meta_element_set_no": 999,
        "meta_rev_at_epoch": 182,
        "meta_bstar": -0.0094385,
        "meta_mean_motion_dot": -0.01907383,
        "meta_mean_motion_ddot": 0,
        "tle_line1": "1 67043U 25294P   25356.16668980 -.01907383  00000+0 -94385-2 0  9990",
        "tle_line2": "2 67043  43.0003 124.4071 0001597 275.4900 135.9393 15.83999106  1825"
      },
      "geometry": {
        "type": "Point",
        "coordinates": [
          132.3053531259114,
          8.659851106181598
        ]
      }
    },
    {
      "type": "Feature",
      "properties": {
        "norad_id": 67044,
        "name": "STARLINK-35884",
        "group": "last-30-days",
        "lat": 10.096872599199212,
        "lon": 133.90962073608443,
        "alt_km": 320.6920104112269,
        "timestamp": "2025-12-22T09:53:36.147365+00:00",
        "meta_object_name": "STARLINK-35884",
        "meta_object_id": "2025-294Q",
        "meta_epoch": "2025-12-22T04:00:01.998720",
        "meta_mean_motion": 15.84005937,
        "meta_eccentricity": 0.0001658,
        "meta_inclination": 43.0005,
        "meta_ra_of_asc_node": 124.4016,
        "meta_arg_of_pericenter": 276.4097,
        "meta_mean_anomaly": 137.158,
        "meta_ephemeris_type": 0,
        "meta_classification_type": "U",
        "meta_norad_cat_id": 67044,
        "meta_element_set_no": 999,
        "meta_rev_at_epoch": 182,
        "meta_bstar": -0.0095239,
        "meta_mean_motion_dot": -0.01923004,
        "meta_mean_motion_ddot": 0,
        "tle_line1": "1 67044U 25294Q   25356.16668980 -.01923004  00000+0 -95239-2 0  9998",
        "tle_line2": "2 67044  43.0005 124.4016 0001658 276.4097 137.1580 15.84005937  1826"
      },
      "geometry": {
        "type": "Point",
        "coordinates": [
          133.90962073608443,
          10.096872599199212
        ]
      }
    },
    {
      "type": "Feature",
      "properties": {
        "norad_id": 67045,
        "name": "STARLINK-35891",
        "group": "last-30-days",
        "lat": 11.773938022359737,
        "lon": 135.81190702496028,
        "alt_km": 320.62190900591304,
        "timestamp": "2025-12-22T09:53:36.147377+00:00",
        "meta_object_name": "STARLINK-35891",
        "meta_object_id": "2025-294R",
        "meta_epoch": "2025-12-22T04:00:01.998720",
        "meta_mean_motion": 15.83984198,
        "meta_eccentricity": 0.0001431,
        "meta_inclination": 43.0003,
        "meta_ra_of_asc_node": 124.3951,
        "meta_arg_of_pericenter": 272.3019,
        "meta_mean_anomaly": 143.8016,
        "meta_ephemeris_type": 0,
        "meta_classification_type": "U",
        "meta_norad_cat_id": 67045,
        "meta_element_set_no": 999,
        "meta_rev_at_epoch": 174,
        "meta_bstar": -0.0095323,
        "meta_mean_motion_dot": -0.01922482,
        "meta_mean_motion_ddot": 0,
        "tle_line1": "1 67045U 25294R   25356.16668980 -.01922482  00000+0 -95323-2 0  9992",
        "tle_line2": "2 67045  43.0003 124.3951 0001431 272.3019 143.8016 15.83984198  1743"
      },
      "geometry": {
        "type": "Point",
        "coordinates": [
          135.81190702496028,
          11.773938022359737
        ]
      }
    },
    {
      "type": "Feature",
      "properties": {
        "norad_id": 67046,
        "name": "STARLINK-35721",
        "group": "last-30-days",
        "lat": 13.29581289605608,
        "lon": 137.5711643774089,
        "alt_km": 320.5097254371731,
        "timestamp": "2025-12-22T09:53:36.147387+00:00",
        "meta_object_name": "STARLINK-35721",
        "meta_object_id": "2025-294S",
        "meta_epoch": "2025-12-22T04:00:01.998720",
        "meta_mean_motion": 15.83968255,
        "meta_eccentricity": 0.0001342,
        "meta_inclination": 43.0005,
        "meta_ra_of_asc_node": 124.3893,
        "meta_arg_of_pericenter": 270.1903,
        "meta_mean_anomaly": 148.2269,
        "meta_ephemeris_type": 0,
        "meta_classification_type": "U",
        "meta_norad_cat_id": 67046,
        "meta_element_set_no": 999,
        "meta_rev_at_epoch": 182,
        "meta_bstar": -0.0095529,
        "meta_mean_motion_dot": -0.01924705,
        "meta_mean_motion_ddot": 0,
        "tle_line1": "1 67046U 25294S   25356.16668980 -.01924705  00000+0 -95529-2 0  9991",
        "tle_line2": "2 67046  43.0005 124.3893 0001342 270.1903 148.2269 15.83968255  1824"
      },
      "geometry": {
        "type": "Point",
        "coordinates": [
          137.5711643774089,
          13.29581289605608
        ]
      }
    }
  ]
}